NORAD_CAT_ID,OBJECT_NAME,OBJECT_TYPE,EPOCH,MEAN_MOTION,ECCENTRICITY,INCLINATION,RA_OF_ASC_NODE,ARG_OF_PERICENTER,MEAN_ANOMALY,BSTAR,MEAN_MOTION_DOT,MEAN_MOTION_DDOT,TLE_LINE0,TLE_LINE1,TLE_LINE2,SEMIMAJOR_AXIS,PERIOD,APOGEE,PERIGEE,DECAYED
54010.0,STARLINK-5127,PAYLOAD,2024-03-16 13:50:38,15.08840632,0.0001538,53.2159,209.8732,84.164,275.9527,3.5133e-05,2.71e-06,0.0,0 STARLINK-5127,1 54010U 22125AY  24076.57683192  .00000271  00000-0  35133-4 0  9991,2 54010  53.2159 209.8732 0001538  84.1640 275.9527 15.08840632 80448,6917.878,95.438,540.807,538.679,0.0
54010.0,STARLINK-5127,PAYLOAD,2024-03-16 18:36:45,15.08791325,9.25e-05,53.2168,208.9776,99.8017,260.308,0.00071896,0.00011158,0.0,0 STARLINK-5127,1 54010U 22125AY  24076.77552805  .00011158  00000-0  71896-3 0  9990,2 54010  53.2168 208.9776 0000925  99.8017 260.3080 15.08791325 80475,6918.029,95.441,540.534,539.254,0.0
54010.0,STARLINK-5127,PAYLOAD,2024-03-17 13:41:25,15.08821326,0.0001414,53.2162,205.4092,71.5688,288.5457,0.00028829,4.301e-05,0.0,0 STARLINK-5127,1 54010U 22125AY  24077.57043510  .00004301  00000-0  28829-3 0  9997,2 54010  53.2162 205.4092 0001414  71.5688 288.5457 15.08821326 80595,6917.937,95.439,540.781,538.824,0.0
54010.0,STARLINK-5127,PAYLOAD,2024-03-17 18:27:34,15.08836081,0.0001252,53.2173,204.5159,88.3676,271.746,0.00012203,1.655e-05,0.0,0 STARLINK-5127,1 54010U 22125AY  24077.76915249  .00001655  00000-0  12203-3 0  9993,2 54010  53.2173 204.5159 0001252  88.3676 271.7460 15.08836081 80620,6917.892,95.438,540.623,538.891,0.0
54010.0,STARLINK-5127,PAYLOAD,2024-03-18 11:56:49,15.08837108,0.0001543,53.2172,201.2448,107.8869,252.2291,-6.1601e-06,-3.86e-06,0.0,0 STARLINK-5127,1 54010U 22125AY  24078.49779808 -.00000386  00000-0 -61601-5 0  9993,2 54010  53.2172 201.2448 0001543 107.8869 252.2291 15.08837108 80737,6917.889,95.438,540.822,538.687,0.0
54010.0,STARLINK-5127,PAYLOAD,2024-03-19 11:47:36,15.0884742,0.0001321,53.2172,196.7934,86.1303,273.984,6.6752e-05,7.75e-06,0.0,0 STARLINK-5127,1 54010U 22125AY  24079.49139339  .00000775  00000-0  66752-4 0  9994,2 54010  53.2172 196.7934 0001321  86.1303 273.9840 15.08847420 80885,6917.858,95.437,540.637,538.809,0.0
54010.0,STARLINK-5127,PAYLOAD,2024-03-19 13:22:59,15.08849038,0.0001368,53.2165,196.4871,87.9539,272.161,6.5483e-05,7.55e-06,0.0,0 STARLINK-5127,1 54010U 22125AY  24079.55763136  .00000755  00000-0  65483-4 0  9997,2 54010  53.2165 196.4871 0001368  87.9539 272.1610 15.08849038 80945,6917.853,95.437,540.664,538.771,0.0
54010.0,STARLINK-5127,PAYLOAD,2024-03-20 06:52:15,15.08831242,0.0001512,53.2163,193.2205,111.1361,248.9792,6.9408e-05,8.17e-06,0.0,0 STARLINK-5127,1 54010U 22125AY  24080.28628474  .00000817  00000-0  69408-4 0  9994,2 54010  53.2163 193.2205 0001512 111.1361 248.9792 15.08831242 81056,6917.907,95.438,540.818,538.726,0.0
54010.0,STARLINK-5127,PAYLOAD,2024-03-20 13:13:47,15.08833195,0.0001411,53.2174,192.0352,81.8607,278.2545,4.787e-05,4.74e-06,0.0,0 STARLINK-5127,1 54010U 22125AY  24080.55124756  .00000474  00000-0  47870-4 0  9996,2 54010  53.2174 192.0352 0001411  81.8607 278.2545 15.08833195 81042,6917.901,95.438,540.742,538.79,0.0
54010.0,STARLINK-5127,PAYLOAD,2024-03-20 14:49:10,15.08835701,0.0001501,53.2172,191.7355,99.3439,260.7723,7.6195e-05,9.25e-06,0.0,0 STARLINK-5127,1 54010U 22125AY  24080.61748487  .00000925  00000-0  76195-4 0  9999,2 54010  53.2172 191.7355 0001501  99.3439 260.7723 15.08835701 81056,6917.894,95.438,540.797,538.72,0.0
54010.0,STARLINK-5127,PAYLOAD,2024-03-21 01:56:52,15.08843787,0.0001489,53.2149,189.6532,92.9982,267.118,1.3479e-05,-7.3e-07,0.0,0 STARLINK-5127,1 54010U 22125AY  24081.08115919 -.00000073  00000-0  13479-4 0  9990,2 54010  53.2149 189.6532 0001489  92.9982 267.1180 15.08843787 81174,6917.869,95.437,540.764,538.704,0.0
54010.0,STARLINK-5127,PAYLOAD,2024-03-21 14:39:56,15.08858464,0.0001516,53.217,187.2738,85.3582,274.7583,0.00023452,3.448e-05,0.0,0 STARLINK-5127,1 54010U 22125AY  24081.61107068  .00003448  00000-0  23452-3 0  9994,2 54010  53.2170 187.2738 0001516  85.3582 274.7583 15.08858464 81206,6917.824,95.436,540.738,538.64,0.0
54010.0,STARLINK-5127,PAYLOAD,2024-03-21 16:15:19,15.08865457,0.0001323,53.2165,186.9758,99.3046,260.8095,0.00032199,4.844e-05,0.0,0 STARLINK-5127,1 54010U 22125AY  24081.67730525  .00004844  00000-0  32199-3 0  9999,2 54010  53.2165 186.9758 0001323  99.3046 260.8095 15.08865457 81264,6917.803,95.436,540.583,538.752,0.0
54010.0,STARLINK-5127,PAYLOAD,2024-03-22 12:55:20,15.08860153,0.000192,53.2164,183.112,122.9903,237.1274,0.0003449,5.208e-05,0.0,0 STARLINK-5127,1 54010U 22125AY  24082.53842642  .00005208  00000-0  34490-3 0  9990,2 54010  53.2164 183.1120 0001920 122.9903 237.1274 15.08860153 81391,6917.819,95.436,541.012,538.356,0.0
54010.0,STARLINK-5127,PAYLOAD,2024-03-23 11:10:45,15.08830003,0.0001294,53.2146,178.948,67.0474,293.0654,-0.00011936,-2.186e-05,0.0,0 STARLINK-5127,1 54010U 22125AY  24083.46580302 -.00002186  00000-0 -11936-3 0  9999,2 54010  53.2146 178.9480 0001294  67.0474 293.0654 15.08830003 81538,6917.911,95.438,540.671,538.881,0.0
54010.0,STARLINK-5127,PAYLOAD,2024-03-23 12:46:08,15.08830212,0.0001531,53.2164,178.6491,111.3104,248.8052,-5.557e-05,-1.172e-05,0.0,0 STARLINK-5127,1 54010U 22125AY  24083.53204293 -.00001172  00000-0 -55570-4 0  9996,2 54010  53.2164 178.6491 0001531 111.3104 248.8052 15.08830212 81491,6917.91,95.438,540.834,538.716,0.0
54010.0,STARLINK-5127,PAYLOAD,2024-03-24 12:36:54,15.08873286,0.000169,53.2171,174.1904,86.4009,273.7177,0.0016747,0.0002649,0.0,0 STARLINK-5127,1 54010U 22125AY  24084.52563440  .00026490  00000-0  16747-2 0  9997,2 54010  53.2171 174.1904 0001690  86.4009 273.7177 15.08873286 81696,6917.779,95.435,540.813,538.475,0.0
54010.0,STARLINK-5127,PAYLOAD,2024-03-25 12:27:42,15.08849746,0.0001364,53.2171,169.728,78.6042,281.5103,0.00068245,0.00010593,0.0,0 STARLINK-5127,1 54010U 22125AY  24085.51923825  .00010593  00000-0  68245-3 0  9992,2 54010  53.2171 169.7280 0001364  78.6042 281.5103 15.08849746 81848,6917.851,95.437,540.659,538.772,0.0
54010.0,STARLINK-5127,PAYLOAD,2024-03-26 04:21:35,15.08807383,0.0001611,53.217,166.7574,79.1426,280.9747,0.0010336,0.00016185,0.0,0 STARLINK-5127,1 54010U 22125AY  24086.18165968  .00016185  00000-0  10336-2 0  9992,2 54010  53.2170 166.7574 0001611  79.1426 280.9747 15.08807383 81946,6917.98,95.44,540.96,538.731,0.0
54010.0,STARLINK-5127,PAYLOAD,2024-03-26 12:18:31,15.08800791,0.0001677,53.2171,165.2715,104.2601,255.8577,0.00015682,2.206e-05,0.0,0 STARLINK-5127,1 54010U 22125AY  24086.51286671  .00002206  00000-0  15682-3 0  9993,2 54010  53.2171 165.2715 0001677 104.2601 255.8577 15.08800791 81998,6918.0,95.44,541.025,538.705,0.0
54010.0,STARLINK-5127,PAYLOAD,2024-03-26 21:50:50,15.08817303,0.0001156,53.2163,163.4871,104.8826,255.2295,0.00076863,0.00011958,0.0,0 STARLINK-5127,1 54010U 22125AY  24086.91031181  .00011958  00000-0  76863-3 0  9993,2 54010  53.2163 163.4871 0001156 104.8826 255.2295 15.08817303 82000,6917.95,95.439,540.614,539.015,0.0
54010.0,STARLINK-5127,PAYLOAD,2024-03-27 12:09:18,15.08855157,0.00011,53.2142,160.81,101.7711,258.3404,0.0010783,0.00016922,0.0,0 STARLINK-5127,1 54010U 22125AY  24087.50646397  .00016922  00000-0  10783-2 0  9994,2 54010  53.2142 160.8100 0001100 101.7711 258.3404 15.08855157 82141,6917.834,95.437,540.46,538.938,0.0
54010.0,STARLINK-5127,PAYLOAD,2024-03-27 21:41:36,15.0887203,0.0001033,53.2144,159.0255,93.2224,266.8886,0.00035,5.292e-05,0.0,0 STARLINK-5127,1 54010U 22125AY  24087.90389565  .00005292  00000-0  35000-3 0  9997,2 54010  53.2144 159.0255 0001033  93.2224 266.8886 15.08872030 82151,6917.782,95.436,540.362,538.933,0.0
54010.0,STARLINK-5127,PAYLOAD,2024-03-28 12:00:04,15.08857644,0.0001586,53.2164,156.3525,99.0506,261.0666,0.00029693,4.443e-05,0.0,0 STARLINK-5127,1 54010U 22125AY  24088.50005366  .00004443  00000-0  29693-3 0  9996,2 54010  53.2164 156.3525 0001586  99.0506 261.0666 15.08857644 82295,6917.826,95.436,540.789,538.594,0.0
54010.0,STARLINK-5127,PAYLOAD,2024-03-28 21:32:22,15.08856824,0.000113,53.2147,154.5646,105.9561,254.1555,9.1711e-05,1.173e-05,0.0,0 STARLINK-5127,1 54010U 22125AY  24088.89748751  .00001173  00000-0  91711-4 0  9998,2 54010  53.2147 154.5646 0001130 105.9561 254.1555 15.08856824 82304,6917.829,95.436,540.476,538.912,0.0
54010.0,STARLINK-5127,PAYLOAD,2024-03-29 11:50:50,15.0885783,0.0001381,53.2154,151.8897,106.2165,253.8979,-8.0201e-07,-3.01e-06,0.0,0 STARLINK-5127,1 54010U 22125AY  24089.49364478 -.00000301  00000-0 -80201-6 0  9993,2 54010  53.2154 151.8897 0001381 106.2165 253.8979 15.08857830 82441,6917.826,95.436,540.646,538.736,0.0
54010.0,STARLINK-5127,PAYLOAD,2024-03-29 21:23:09,15.08847801,0.0001307,53.2158,150.1038,95.5671,264.547,-2.5532e-05,-6.94e-06,0.0,0 STARLINK-5127,1 54010U 22125AY  24089.89108602 -.00000694  00000-0 -25532-4 0  9991,2 54010  53.2158 150.1038 0001307  95.5671 264.5470 15.08847801 82457,6917.857,95.437,540.626,538.817,0.0
54010.0,STARLINK-5127,PAYLOAD,2024-03-30 03:44:42,15.08843883,0.0001621,53.2158,148.9162,93.3906,266.7272,-3.6829e-05,-8.74e-06,0.0,0 STARLINK-5127,1 54010U 22125AY  24090.15604835 -.00000874  00000-0 -36829-4 0  9992,2 54010  53.2158 148.9162 0001621  93.3906 266.7272 15.08843883 82546,6917.869,95.437,540.855,538.612,0.0
54010.0,STARLINK-5127,PAYLOAD,2024-03-30 10:06:15,15.08847111,0.0001586,53.2164,147.7264,93.9229,266.1944,6.5727e-05,7.58e-06,0.0,0 STARLINK-5127,1 54010U 22125AY  24090.42100898  .00000758  00000-0  65727-4 0  9990,2 54010  53.2164 147.7264 0001586  93.9229 266.1944 15.08847111 82534,6917.859,95.437,540.821,538.626,0.0
54010.0,STARLINK-5127,PAYLOAD,2024-03-30 21:13:56,15.08848711,0.0001473,53.216,145.6451,92.2097,267.9064,6.001e-05,6.67e-06,0.0,0 STARLINK-5127,1 54010U 22125AY  24090.88468663  .00000667  00000-0  60010-4 0  9996,2 54010  53.2160 145.6451 0001473  92.2097 267.9064 15.08848711 82602,6917.854,95.437,540.738,538.7,0.0
